[{"OBJECT_NAME":"STARLINK-34318","OBJECT_ID":"2025-117V","EPOCH":"2026-03-09T05:27:06.724224","MEAN_MOTION":15.30199776,"ECCENTRICITY":0.0001077,"INCLINATION":53.1604,"RA_OF_ASC_NODE":41.8395,"ARG_OF_PERICENTER":80.9385,"MEAN_ANOMALY":279.1738,"EPHEMERIS_TYPE":0,"CLASSIFICATION_TYPE":"U","NORAD_CAT_ID":64222,"ELEMENT_SET_NO":999,"REV_AT_EPOCH":4445,"BSTAR":0.0011220733,"MEAN_MOTION_DOT":0.00033021,"MEAN_MOTION_DDOT":0},{"OBJECT_NAME":"ELECTRON KICK STAGE R\/B","OBJECT_ID":"2022-147B","EPOCH":"2026-03-09T22:28:20.187264","MEAN_MOTION":15.28920172,"ECCENTRICITY":0.00095089,"INCLINATION":97.642,"RA_OF_ASC_NODE":85.1135,"ARG_OF_PERICENTER":110.4683,"MEAN_ANOMALY":249.7578,"EPHEMERIS_TYPE":0,"CLASSIFICATION_TYPE":"U","NORAD_CAT_ID":54228,"ELEMENT_SET_NO":999,"REV_AT_EPOCH":18390,"BSTAR":0.00083201931,"MEAN_MOTION_DOT":0.00023374,"MEAN_MOTION_DDOT":0}]
